{"type": "FeatureCollection", "features": [{"type": "Feature", "id": "iho.20", "geometry": {"type": "MultiPolygon", "coordinates": [[[[-5.34535339, 36.10906137], [-5.33202378, 36.06742841], [-5.31869418, 36.02579545], [-5.30536457, 35.98416249], [-5.29203497, 35.94252953], [-5.27870536, 35.90089657], [-5.28205621, 35.90112245], [-5.28706157, 35.9063971], [-5.28762674, 35.90672243], [-5.28887582, 35.90666783], [-5.29085195, 35.90411627], [-5.29803252, 35.90200555], [-5.30108583, 35.89561725], [-5.30709517, 35.89575005], [-5.30653632, 35.89473224], [-5.30378211, 35.89432812], [-5.30405426, 35.8927772], [-5.30764806, 35.89121127], [-5.30886507, 35.89256203], [-5.30975223, 35.89046204], [-5.31246603, 35.89043295], [-5.31567121, 35.89158285], [-5.31422436, 35.89326692], [-5.31823528, 35.89276421], [-5.32320738, 35.89687085], [-5.32107067, 35.89806986], [-5.31389153, 35.89538705], [-5.31135607, 35.89584053], [-5.32012844, 35.89908493], [-5.33076727, 35.89710927], [-5.33329785, 35.89455688], [-5.33569705, 35.89443171], [-5.33920467, 35.89690292], [-5.33920467, 35.89801896], [-5.34388804, 35.90016615], [-5.34785378, 35.90802336], [-5.35585356, 35.91104162], [-5.36541522, 35.91776812], [-5.3707087, 35.91645932], [-5.37900305, 35.91668844], [-5.37942636, 35.91651571], [-5.38168883, 35.91320801], [-5.38194311, 35.91285014], [-5.38212764, 35.91270077], [-5.38242173, 35.91258836], [-5.38275683, 35.91246438], [-5.38304436, 35.91234875], [-5.38322365, 35.91219938], [-5.38350522, 35.91187143], [-5.38408506, 35.91163874], [-5.38445413, 35.91151392], [-5.38496411, 35.91131055], [-5.38571835, 35.91096222], [-5.38658285, 35.91046655], [-5.38721442, 35.91011858], [-5.38762724, 35.90991557], [-5.38795757, 35.90978837], [-5.38828111, 35.90965903], [-5.38861585, 35.90953445], [-5.38895881, 35.90939176], [-5.38930404, 35.90924835], [-5.38964951, 35.90906966], [-5.39274704, 35.90907073], [-5.39309156, 35.90924132], [-5.39343894, 35.90937686], [-5.39379227, 35.90952682], [-5.39414966, 35.90971315], [-5.39448571, 35.90999568], [-5.39479065, 35.91031158], [-5.39520681, 35.9105823], [-5.39571345, 35.91075861], [-5.39622176, 35.91094756], [-5.39679492, 35.91125691], [-5.39741397, 35.91175127], [-5.39781427, 35.91223335], [-5.39805615, 35.91271341], [-5.39822114, 35.91323352], [-5.39837778, 35.91388452], [-5.39801502, 35.91408157], [-5.39777195, 35.91432023], [-5.39744341, 35.91486061], [-5.39698446, 35.91565037], [-5.39664555, 35.91644633], [-5.39642882, 35.91698885], [-5.39630604, 35.91735828], [-5.39722288, 35.91793942], [-5.39757025, 35.91804171], [-5.39792037, 35.91817796], [-5.39827228, 35.91830897], [-5.39861023, 35.91844285], [-5.39908254, 35.91871166], [-5.39937603, 35.91919231], [-5.39953387, 35.91945195], [-5.39973176, 35.9197489], [-5.39996791, 35.92020655], [-5.40026355, 35.92096198], [-5.40052891, 35.92185593], [-5.40091836, 35.92236912], [-5.40153682, 35.92247295], [-5.40219808, 35.92235684], [-5.40280128, 35.92211068], [-5.40318823, 35.92155445], [-5.40353978, 35.92065156], [-5.40411615, 35.91988993], [-5.40481067, 35.91941345], [-5.40540957, 35.91900933], [-5.4057672, 35.91866684], [-5.40603316, 35.91836607], [-5.4061079, 35.91803515], [-5.40649164, 35.91762865], [-5.40673721, 35.91734195], [-5.40696144, 35.91716743], [-5.40725875, 35.91696405], [-5.40756547, 35.91657615], [-5.4077754, 35.91610467], [-5.40796435, 35.91581392], [-5.40817535, 35.91568208], [-5.40837121, 35.91552687], [-5.40859747, 35.91523612], [-5.40892124, 35.91483641], [-5.40924227, 35.91446173], [-5.40959716, 35.91417778], [-5.4099071, 35.91401291], [-5.41009724, 35.91386354], [-5.41019166, 35.91367388], [-5.41276836, 35.91158664], [-5.41300392, 35.91150916], [-5.41316164, 35.91137505], [-5.41326857, 35.91119611], [-5.41346085, 35.91102564], [-5.41383755, 35.91083431], [-5.41438866, 35.91058147], [-5.41499114, 35.91037917], [-5.41560924, 35.91021585], [-5.41636574, 35.91008556], [-5.41729605, 35.90994597], [-5.4184308, 35.90980566], [-5.41941714, 35.90962851], [-5.42338908, 35.90956986], [-5.42371786, 35.90941143], [-5.42406237, 35.90927863], [-5.42447317, 35.90908802], [-5.42501795, 35.90876317], [-5.42562735, 35.90827], [-5.42600334, 35.90785825], [-5.42622244, 35.90757072], [-5.43336523, 35.90763044], [-5.43383706, 35.90773106], [-5.43406057, 35.90799272], [-5.43425918, 35.90841508], [-5.43468153, 35.90911925], [-5.43502915, 35.90944111], [-5.43545151, 35.90978312], [-5.43602276, 35.91014504], [-5.43674302, 35.91042686], [-5.43706584, 35.91056764], [-5.43761218, 35.91060781], [-5.43823314, 35.91058767], [-5.43858075, 35.91058767], [-5.43907762, 35.91038644], [-5.43945014, 35.91014504], [-5.43977296, 35.90974283], [-5.44004607, 35.90950143], [-5.44014561, 35.90930033], [-5.44026983, 35.90893805], [-5.44031942, 35.90867662], [-5.44041884, 35.90841508], [-5.44059265, 35.90807307], [-5.44066715, 35.90785193], [-5.44081604, 35.90754998], [-5.44084096, 35.90726852], [-5.44103956, 35.90694666], [-5.44116378, 35.90640354], [-5.4413377, 35.90584016], [-5.44148672, 35.90543795], [-5.44188404, 35.90471375], [-5.44205785, 35.90447235], [-5.44238675, 35.90420795], [-5.44317114, 35.90409124], [-5.44422531, 35.904091], [-5.44500351, 35.90420735], [-5.44551253, 35.90434861], [-5.44601548, 35.90449977], [-5.4466145, 35.90463304], [-5.44712865, 35.90478468], [-5.44756424, 35.90496385], [-5.44800162, 35.90521777], [-5.44792545, 35.90553415], [-5.44835401, 35.90566885], [-5.44890261, 35.90584755], [-5.44945765, 35.906093], [-5.44984674, 35.90628076], [-5.45017087, 35.90657055], [-5.45034647, 35.90667367], [-5.45056832, 35.90688622], [-5.45068026, 35.90753627], [-5.45056105, 35.90869701], [-5.45028555, 35.90979016], [-5.45016468, 35.91066837], [-5.45027626, 35.91133642], [-5.45056403, 35.91196084], [-5.45109427, 35.91250133], [-5.45185888, 35.91291761], [-5.45298004, 35.91331005], [-5.45423114, 35.91356575], [-5.45504975, 35.9137274], [-5.45543826, 35.91383874], [-5.45558727, 35.91398025], [-5.45566738, 35.91415727], [-5.45581734, 35.91429603], [-5.45605314, 35.91437745], [-5.45673597, 35.91467857], [-5.45880115, 35.91435635], [-5.46042788, 35.91400576], [-5.46165216, 35.91387665], [-5.46249235, 35.91397941], [-5.46324897, 35.91415322], [-5.46410215, 35.91428685], [-5.46514475, 35.91419411], [-5.46602201, 35.91378021], [-5.46666312, 35.91311991], [-5.46727085, 35.91223717], [-5.46771884, 35.91144121], [-5.46821332, 35.91103518], [-5.46884632, 35.91090155], [-5.46926367, 35.91079366], [-5.46946907, 35.91059434], [-5.46967566, 35.91028964], [-5.46999753, 35.90986145], [-5.47045624, 35.90934551], [-5.47079074, 35.90893102], [-5.47100258, 35.90862823], [-5.47114646, 35.90834868], [-5.47134721, 35.90798402], [-5.47169924, 35.9074409], [-5.47229445, 35.90675211], [-5.47255886, 35.90628314], [-5.47318721, 35.90587091], [-5.47366476, 35.90561175], [-5.47432911, 35.90535355], [-5.47511363, 35.90529954], [-5.47585917, 35.90513682], [-5.47692764, 35.90481675], [-5.47810686, 35.90466154], [-5.47905362, 35.90473521], [-5.47980213, 35.90494704], [-5.48023844, 35.90530765], [-5.48030412, 35.90573192], [-5.48017693, 35.90609205], [-5.48013747, 35.90638804], [-5.4802711, 35.90667772], [-5.48051727, 35.90702391], [-5.48088372, 35.90745246], [-5.48129296, 35.90790212], [-5.48179615, 35.90831685], [-5.48225224, 35.90855753], [-5.48263145, 35.90864015], [-5.48297465, 35.90857625], [-5.48330975, 35.90848172], [-5.48296833, 35.90771866], [-5.48286927, 35.90708482], [-5.48301864, 35.90649486], [-5.48328483, 35.90588856], [-5.48361576, 35.90537274], [-5.48386908, 35.90500271], [-5.48411465, 35.90467966], [-5.48444963, 35.90427256], [-5.48493397, 35.90374982], [-5.48535967, 35.90325975], [-5.48572874, 35.90282536], [-5.48597431, 35.90247846], [-5.48616445, 35.90218926], [-5.48633206, 35.90191746], [-5.48654127, 35.90164685], [-5.48648775, 35.89897406], [-5.48632968, 35.89838505], [-5.48632157, 35.89762366], [-5.48645735, 35.89671898], [-5.48662257, 35.89570177], [-5.48682141, 35.89500737], [-5.48707342, 35.89457572], [-5.48746896, 35.8941437], [-5.48797965, 35.89354551], [-5.48859406, 35.89270174], [-5.48898983, 35.89191175], [-5.48924828, 35.89148951], [-5.48955238, 35.89133072], [-5.48995304, 35.89123487], [-5.49037456, 35.89115071], [-5.49064314, 35.89101124], [-5.49079132, 35.89078653], [-5.4909693, 35.89049256], [-5.49127078, 35.89012516], [-5.49180496, 35.88968945], [-5.49245894, 35.88923645], [-5.49312866, 35.88869417], [-5.493595, 35.88823974], [-5.4939779, 35.88792956], [-5.49433815, 35.88775253], [-5.49470711, 35.88759863], [-5.49494231, 35.88752496], [-5.49512815, 35.88737595], [-5.49533236, 35.88713014], [-5.49567604, 35.88683355], [-5.49611521, 35.88651562], [-5.49657154, 35.88612366], [-5.49699891, 35.88580287], [-5.4977473, 35.88561034], [-5.49893713, 35.88548386], [-5.49995482, 35.88537192], [-5.50066304, 35.88536143], [-5.50101936, 35.88550234], [-5.50122154, 35.88576543], [-5.50150406, 35.88604856], [-5.50188506, 35.88624275], [-5.50239801, 35.88635373], [-5.50306594, 35.88634324], [-5.50378466, 35.88629246], [-5.50462961, 35.88639653], [-5.50554073, 35.88662744], [-5.50637376, 35.88662934], [-5.50684905, 35.88611984], [-5.50709975, 35.88511837], [-5.50736785, 35.88412273], [-5.50776446, 35.88425195], [-5.50788105, 35.88404465], [-5.50799453, 35.88375652], [-5.50814056, 35.88334775], [-5.50832474, 35.88288474], [-5.50868666, 35.88259006], [-5.50925767, 35.88243926], [-5.50980055, 35.88229322], [-5.51029527, 35.88210595], [-5.51077962, 35.88186097], [-5.51137126, 35.88149095], [-5.51158142, 35.88105476], [-5.51149082, 35.88091636], [-5.51127708, 35.88082898], [-5.51107097, 35.88068438], [-5.51090074, 35.88040733], [-5.51074982, 35.87999046], [-5.51089633, 35.87933195], [-5.51147676, 35.87938726], [-5.51166844, 35.87929165], [-5.51176834, 35.87909937], [-5.51240361, 35.87848771], [-5.51240361, 35.87820876], [-5.51439106, 35.87643242], [-5.51452005, 35.87607992], [-5.51478887, 35.87589741], [-5.51522112, 35.87589705], [-5.51566303, 35.87595642], [-5.51606166, 35.87590551], [-5.51640224, 35.87574446], [-5.51660335, 35.87546682], [-5.51661003, 35.87514973], [-5.51669753, 35.8748337], [-5.51708043, 35.87453854], [-5.51772284, 35.87428415], [-5.51850355, 35.87402284], [-5.51929021, 35.87383866], [-5.5199151, 35.87369764], [-5.52037954, 35.87354887], [-5.52063596, 35.87325192], [-5.52076566, 35.87278044], [-5.52089775, 35.8723613], [-5.52107835, 35.87208533], [-5.52145123, 35.87197173], [-5.52201986, 35.87200201], [-5.52271092, 35.87202334], [-5.52490115, 35.87006533], [-5.52551246, 35.86976886], [-5.52619934, 35.86936641], [-5.52682555, 35.86895573], [-5.52734387, 35.86846423], [-5.52765155, 35.86798394], [-5.52784884, 35.86760724], [-5.5279932, 35.86728716], [-5.528144, 35.86695576], [-5.52828383, 35.86662853], [-5.52848172, 35.86641037], [-5.52876306, 35.86623311], [-5.52904916, 35.86594057], [-5.52930963, 35.86551082], [-5.52968931, 35.86499584], [-5.52999592, 35.86457455], [-5.53026736, 35.86422086], [-5.53060532, 35.86381006], [-5.53105772, 35.86331034], [-5.5313853, 35.86287022], [-5.53161454, 35.86246765], [-5.53183186, 35.86205327], [-5.53215706, 35.86172044], [-5.53255367, 35.86152637], [-5.5329957, 35.86139524], [-5.53370416, 35.86115456], [-5.53386331, 35.86091101], [-5.53402066, 35.86056948], [-5.53418553, 35.8601619], [-5.5344007, 35.85977054], [-5.53444076, 35.859375], [-5.53496134, 35.859375], [-5.53498435, 35.85811317], [-5.53549278, 35.85759747], [-5.5360074, 35.85708213], [-5.53662252, 35.85658574], [-5.53708291, 35.85628867], [-5.53735638, 35.85607028], [-5.53764093, 35.85577107], [-5.53809416, 35.85540366], [-5.53855705, 35.85509634], [-5.53895891, 35.85476124], [-5.53933215, 35.85436714], [-5.53980052, 35.85396898], [-5.54024816, 35.85373366], [-5.54068255, 35.85365701], [-5.54119551, 35.85371125], [-5.54175127, 35.85372865], [-5.5420897, 35.85362661], [-5.54243624, 35.85327244], [-5.54278815, 35.85307908], [-5.54326022, 35.85282958], [-5.54369593, 35.85263205], [-5.54407883, 35.85246158], [-5.54446745, 35.85228384], [-5.54489756, 35.85203552], [-5.5448966, 35.85141683], [-5.54515362, 35.85131621], [-5.54545462, 35.85121703], [-5.54576743, 35.85109913], [-5.54603267, 35.85098815], [-5.54624641, 35.85081196], [-5.54655874, 35.85050488], [-5.54714155, 35.8501054], [-5.54785085, 35.84970415], [-5.54848123, 35.84919202], [-5.54890752, 35.84863162], [-5.54923928, 35.84814644], [-5.54944754, 35.84783745], [-5.54962635, 35.84769595], [-5.54983306, 35.84762144], [-5.55005276, 35.84745705], [-5.55036533, 35.8470993], [-5.55082095, 35.84658194], [-5.55120027, 35.84608245], [-5.55264425, 35.84489536], [-5.55328393, 35.84479463], [-5.55397606, 35.84465873], [-5.55476284, 35.84452426], [-5.55542755, 35.84437704], [-5.55605638, 35.84423912], [-5.55682516, 35.84408414], [-5.55782843, 35.84393716], [-5.55877018, 35.84380198], [-5.55957735, 35.84377003], [-5.56002843, 35.84388626], [-5.56021917, 35.84415317], [-5.56031466, 35.84457564], [-5.56028485, 35.84513664], [-5.56018245, 35.84570324], [-5.560184, 35.84625053], [-5.56027853, 35.84666646], [-5.56026781, 35.84699786], [-5.56010151, 35.84734488], [-5.55991554, 35.84772503], [-5.5598613, 35.84802234], [-5.56019676, 35.84819734], [-5.56090975, 35.84830928], [-5.56162274, 35.84842646], [-5.56229687, 35.84851754], [-5.56262922, 35.84795952], [-5.56295025, 35.84732294], [-5.56325757, 35.84660697], [-5.56361735, 35.84610951], [-5.56401706, 35.84587467], [-5.56445384, 35.84574461], [-5.5648787, 35.84564745], [-5.56514215, 35.84551096], [-5.56528294, 35.84534121], [-5.56544542, 35.84521317], [-5.56587398, 35.84496057], [-5.56606138, 35.84464371], [-5.56619835, 35.84418166], [-5.56616056, 35.84370625], [-5.56618285, 35.84332633], [-5.56628406, 35.84302092], [-5.56644511, 35.84275436], [-5.56698954, 35.84241641], [-5.56748307, 35.84233666], [-5.56787515, 35.84216833], [-5.56826115, 35.84179711], [-5.56883717, 35.84122348], [-5.56893063, 35.84081364], [-5.5695374, 35.84062076], [-5.57002675, 35.84050035], [-5.5705744, 35.84036398], [-5.57094133, 35.84012234], [-5.57126152, 35.83974898], [-5.57183576, 35.83940268], [-5.57262051, 35.83918917], [-5.57323873, 35.83907604], [-5.57365584, 35.83909655], [-5.57398558, 35.83919442], [-5.57430518, 35.83920014], [-5.57465756, 35.83906496], [-5.57508445, 35.8388648], [-5.57559621, 35.83867383], [-5.5761162, 35.83866131], [-5.57662773, 35.83876526], [-5.57705653, 35.83892477], [-5.57741785, 35.83907843], [-5.57775605, 35.83923626], [-5.57809305, 35.83935785], [-5.57843387, 35.83941972], [-5.57877731, 35.83936656], [-5.57912135, 35.83928585], [-5.57955766, 35.83870304], [-5.57977855, 35.83794916], [-5.58011115, 35.83745778], [-5.5804919, 35.83718514], [-5.58086646, 35.83690345], [-5.58124888, 35.83654332], [-5.58176923, 35.83612895], [-5.58232284, 35.83574665], [-5.58282554, 35.83532107], [-5.58316576, 35.83494115], [-5.58349526, 35.83465672], [-5.58395731, 35.83447933], [-5.58478057, 35.83429575], [-5.58602536, 35.83402836], [-5.58654261, 35.83383358], [-5.58717501, 35.83365488], [-5.58802736, 35.83337986], [-5.58875346, 35.8331964], [-5.58951068, 35.83306694], [-5.59008324, 35.8329308], [-5.59050107, 35.83279705], [-5.59091747, 35.83264244], [-5.59140813, 35.83249903], [-5.59191537, 35.83238244], [-5.59243214, 35.83238685], [-5.59290504, 35.83251464], [-5.59323585, 35.83266604], [-5.59379268, 35.83284545], [-5.59402895, 35.83265245], [-5.59442616, 35.83224225], [-5.59513915, 35.83178985], [-5.59590817, 35.83166623], [-5.59655094, 35.83182526], [-5.59703302, 35.83192694], [-5.59745264, 35.8318758], [-5.59784722, 35.83174264], [-5.59814203, 35.83147156], [-5.59847474, 35.83102584], [-5.59901905, 35.83056891], [-5.59960365, 35.83027935], [-5.60005617, 35.83008873], [-5.60040867, 35.82995856], [-5.60078335, 35.82990181], [-5.60133457, 35.83005321], [-5.6021347, 35.83036554], [-5.60296452, 35.83050883], [-5.60361886, 35.83047128], [-5.60414851, 35.83046365], [-5.60456491, 35.83055067], [-5.60492301, 35.83064616], [-5.60521305, 35.83086407], [-5.60568774, 35.83107102], [-5.60618055, 35.83132792], [-5.60660088, 35.83152556], [-5.60694754, 35.83167911], [-5.60727012, 35.83180594], [-5.60764694, 35.83198595], [-5.60820127, 35.83226681], [-5.60899413, 35.83265996], [-5.60981035, 35.83294785], [-5.61047936, 35.83308494], [-5.6107161, 35.83305776], [-5.61113071, 35.83301044], [-5.61184526, 35.83276522], [-5.61258483, 35.83253527], [-5.61326528, 35.83233547], [-5.6140238, 35.83218575], [-5.61495698, 35.83213115], [-5.61617684, 35.83234143], [-5.61728025, 35.83279037], [-5.617908, 35.83312464], [-5.61817813, 35.83336997], [-5.61836445, 35.83367455], [-5.61860895, 35.83404565], [-5.61898172, 35.83452082], [-5.6193732, 35.83463335], [-5.62014592, 35.83476007], [-5.62126946, 35.83488464], [-5.62222373, 35.83502054], [-5.62290335, 35.83514464], [-5.62323427, 35.83530438], [-5.62338483, 35.83549345], [-5.62362075, 35.83561337], [-5.62403083, 35.83559287], [-5.62448215, 35.83545113], [-5.625, 35.83537936], [-5.6303333, 35.83540773], [-5.63058352, 35.83494306], [-5.63073456, 35.83467007], [-5.63087285, 35.83444238], [-5.63106477, 35.83433306], [-5.63135445, 35.83434308], [-5.6317085, 35.83434093], [-5.63207924, 35.83413196], [-5.63245606, 35.83376098], [-5.63292944, 35.83335745], [-5.63336492, 35.83308935], [-5.63376224, 35.83289146], [-5.63424265, 35.83269835], [-5.63490272, 35.83248937], [-5.63562095, 35.83240294], [-5.63615525, 35.83236432], [-5.63650346, 35.83219004], [-5.63681042, 35.83195937], [-5.63742483, 35.831779], [-5.63839781, 35.83164871], [-5.63915396, 35.83154535], [-5.63965857, 35.83155024], [-5.64017582, 35.83165812], [-5.64085925, 35.8317672], [-5.64137006, 35.83143425], [-5.64160943, 35.83152163], [-5.64177525, 35.83167064], [-5.64189255, 35.83185935], [-5.64207363, 35.83198321], [-5.64235985, 35.83197713], [-5.64269006, 35.83186865], [-5.64316785, 35.83152294], [-5.64330673, 35.83118928], [-5.64349365, 35.83077347], [-5.64374065, 35.83016515], [-5.64405215, 35.82922935], [-5.64427447, 35.82804525], [-5.64444006, 35.82707703], [-5.64748824, 35.82725954], [-5.64782965, 35.82707775], [-5.64822185, 35.82693005], [-5.64873874, 35.82678425], [-5.6493628, 35.82667255], [-5.64987373, 35.82659948], [-5.65027714, 35.82657838], [-5.65069771, 35.82649386], [-5.65121746, 35.82636833], [-5.65181017, 35.82624483], [-5.65245485, 35.82623816], [-5.65298903, 35.82637107], [-5.65347672, 35.82658052], [-5.65403557, 35.8268435], [-5.65462494, 35.82704663], [-5.65520024, 35.82724094], [-5.65581036, 35.82749784], [-5.65634668, 35.82786942], [-5.65667665, 35.82818174], [-5.65698957, 35.82837355], [-5.65741766, 35.82854188], [-5.65782404, 35.82880723], [-5.65813744, 35.82912016], [-5.65848005, 35.82940006], [-5.65884411, 35.82958674], [-5.65925801, 35.82976973], [-5.65979016, 35.82987034], [-5.66022456, 35.83000624], [-5.66058588, 35.83014071], [-5.66092312, 35.83028865], [-5.66125858, 35.83042812], [-5.66159368, 35.83058417], [-5.66192436, 35.83072746], [-5.66225982, 35.83084345], [-5.66264427, 35.83083725], [-5.66316128, 35.83070517], [-5.66382146, 35.83054864], [-5.66444313, 35.83043194], [-5.66499555, 35.83048737], [-5.66539741, 35.83073401], [-5.66564155, 35.83100545], [-5.66591024, 35.83116412], [-5.66625512, 35.83116198], [-5.66650045, 35.83101833], [-5.6666435, 35.83081722], [-5.66709936, 35.83069992], [-5.66742528, 35.83081734], [-5.66773176, 35.83093595], [-5.66799033, 35.8310523], [-5.66850865, 35.83146107], [-5.66943455, 35.83172011], [-5.67029226, 35.83209026], [-5.67085207, 35.83234251], [-5.67124045, 35.83244777], [-5.67169237, 35.8324548], [-5.67238545, 35.83254111], [-5.67327726, 35.8326627], [-5.6741091, 35.83258045], [-5.67496967, 35.83258533], [-5.67548275, 35.83315742], [-5.67592466, 35.83367014], [-5.67625701, 35.83409727], [-5.67647815, 35.83441424], [-5.67663431, 35.83468545], [-5.67681956, 35.83496904], [-5.67706215, 35.83531094], [-5.6774019, 35.83572161], [-5.67773545, 35.83613968], [-5.67808855, 35.83656144], [-5.67839777, 35.83694875], [-5.67874277, 35.83732986], [-5.67947567, 35.83735943], [-5.67980433, 35.83753526], [-5.68012404, 35.83768296], [-5.68044937, 35.83785176], [-5.68085921, 35.83803463], [-5.68150663, 35.83820355], [-5.68255091, 35.83823371], [-5.68395472, 35.83825755], [-5.68501174, 35.83837485], [-5.68566942, 35.83857083], [-5.68603635, 35.83885956], [-5.68653512, 35.83920658], [-5.68711615, 35.83904147], [-5.68784452, 35.83874035], [-5.68848264, 35.83867335], [-5.68902755, 35.83882904], [-5.68946588, 35.83885801], [-5.68983555, 35.83862186], [-5.69019413, 35.83822894], [-5.69066274, 35.8378185], [-5.69112754, 35.83755672], [-5.69159877, 35.83737886], [-5.69213855, 35.83720934], [-5.69269836, 35.83696973], [-5.69273245, 35.83630645], [-5.69328153, 35.83606684], [-5.69374537, 35.83588326], [-5.69400454, 35.83565712], [-5.69415176, 35.83536518], [-5.69440162, 35.83514941], [-5.69483864, 35.83501411], [-5.69534814, 35.83488584], [-5.69586802, 35.83476806], [-5.69630778, 35.83462536], [-5.69668364, 35.83444381], [-5.69703555, 35.83414912], [-5.69740713, 35.83376253], [-5.69792891, 35.83333182], [-5.6984899, 35.83294475], [-5.69899142, 35.83253825], [-5.69928861, 35.8322283], [-5.69949567, 35.83206058], [-5.69969773, 35.83196557], [-5.69985056, 35.8318367], [-5.69996572, 35.83166301], [-5.70014274, 35.83151245], [-5.70042217, 35.83139157], [-5.70076025, 35.83126438], [-5.70111465, 35.83116746], [-5.70145178, 35.83080876], [-5.70193017, 35.83113801], [-5.70239186, 35.83160531], [-5.70274842, 35.83205473], [-5.70320952, 35.832304], [-5.70384395, 35.83233035], [-5.70432222, 35.83215153], [-5.70470417, 35.83176661], [-5.70515084, 35.83123577], [-5.70550585, 35.83073187], [-5.7074548, 35.82918286], [-5.70818245, 35.82936943], [-5.70866454, 35.82962942], [-5.70892382, 35.82987523], [-5.70926166, 35.83003771], [-5.70986855, 35.83015573], [-5.71065736, 35.8303169], [-5.71162415, 35.83053255], [-5.71253324, 35.83078372], [-5.71323836, 35.83087361], [-5.71363127, 35.83073676], [-5.71392906, 35.83041954], [-5.71438742, 35.83006001], [-5.71496534, 35.82982445], [-5.71568096, 35.82964158], [-5.71642375, 35.82965136], [-5.71693444, 35.82987225], [-5.7171818, 35.83012855], [-5.71738267, 35.83031952], [-5.71766412, 35.83049762], [-5.71796191, 35.83074832], [-5.71816754, 35.83099175], [-5.71837032, 35.83115828], [-5.71864557, 35.83128345], [-5.71896744, 35.83144176], [-5.720734, 35.83012748], [-5.72136593, 35.83019125], [-5.72150743, 35.82969105], [-5.72147047, 35.82877386], [-5.72134447, 35.82806635], [-5.72132885, 35.82766473], [-5.7214607, 35.82740104], [-5.72163248, 35.82714498], [-5.72182417, 35.82681692], [-5.72199404, 35.82636714], [-5.72216785, 35.82579923], [-5.72231972, 35.82513738], [-5.72249115, 35.82462466], [-5.72270274, 35.82429075], [-5.72306311, 35.82413113], [-5.72359562, 35.82417202], [-5.72431135, 35.82422197], [-5.72511435, 35.82408774], [-5.72600651, 35.82372272], [-5.72673905, 35.82351315], [-5.72729027, 35.82348323], [-5.72789502, 35.82342732], [-5.72866583, 35.82331705], [-5.7293781, 35.82314456], [-5.73019385, 35.82295382], [-5.73060608, 35.82265615], [-5.73088098, 35.82258177], [-5.73311865, 35.82064545], [-5.73342371, 35.82016444], [-5.73393905, 35.81985724], [-5.73458993, 35.81987464], [-5.73508513, 35.82019377], [-5.73543167, 35.8205899], [-5.73597276, 35.82081676], [-5.73680925, 35.82082808], [-5.73748505, 35.82071006], [-5.73793066, 35.82058394], [-5.73827827, 35.82042885], [-5.73861527, 35.82015634], [-5.73894668, 35.81957698], [-5.73926425, 35.81877685], [-5.7396878, 35.81822348], [-5.74013448, 35.81807196], [-5.74055088, 35.81844223], [-5.7419883, 35.81978178], [-5.74236274, 35.81966555], [-5.74279094, 35.81952441], [-5.74329245, 35.81943452], [-5.74380124, 35.81945097], [-5.74432981, 35.8195821], [-5.74486411, 35.81956744], [-5.74545646, 35.81935406], [-5.74605596, 35.81914401], [-5.74660134, 35.81900752], [-5.74710095, 35.81900287], [-5.74745727, 35.81905735], [-5.74764514, 35.81900012], [-5.74775136, 35.81883621], [-5.74791563, 35.81867325], [-5.74818337, 35.81854904], [-5.74850857, 35.81846404], [-5.74886155, 35.81849205], [-5.74927604, 35.81855237], [-5.74982071, 35.81838083], [-5.75043285, 35.81786895], [-5.75082517, 35.81721222], [-5.75107455, 35.81637847], [-5.75132751, 35.81527126], [-5.75171065, 35.81421936], [-5.75177348, 35.81375384], [-5.75155306, 35.81348205], [-5.75137651, 35.81321144], [-5.75120175, 35.81293178], [-5.75105083, 35.81260741], [-5.75089443, 35.81219065], [-5.75073385, 35.81172895], [-5.75045586, 35.81143904], [-5.75001884, 35.81130052], [-5.74956465, 35.81117928], [-5.74915814, 35.81100965], [-5.74886978, 35.81068528], [-5.74882317, 35.81020284], [-5.74892688, 35.80956662], [-5.74894154, 35.80877626], [-5.74880993, 35.80807614], [-5.74871457, 35.80457294], [-5.74895203, 35.80417383], [-5.74923015, 35.80375636], [-5.74967885, 35.80341434], [-5.75020266, 35.80317164], [-5.75053406, 35.8029145], [-5.75053263, 35.80263603], [-5.75037313, 35.80230165], [-5.75020266, 35.80181372], [-5.75018203, 35.80115294], [-5.75031376, 35.80052543], [-5.75048447, 35.79994094], [-5.75069523, 35.79944074], [-5.75094998, 35.79895258], [-5.75129116, 35.79847598], [-5.75161874, 35.79803658], [-5.75195825, 35.79760802], [-5.75225496, 35.79725444], [-5.75263035, 35.7970376], [-5.75314772, 35.79700506], [-5.75384402, 35.79695761], [-5.75454056, 35.79662621], [-5.75494313, 35.79627585], [-5.75517797, 35.79607081], [-5.75540495, 35.79597688], [-5.75624454, 35.79535091], [-5.75636375, 35.79481256], [-5.75652015, 35.79424346], [-5.75666893, 35.79365838], [-5.75685537, 35.79331875], [-5.75707436, 35.79318702], [-5.75724173, 35.79306078], [-5.75735807, 35.79281163], [-5.75751758, 35.79239941], [-5.75781465, 35.79187357], [-5.75845253, 35.79143763], [-5.75936723, 35.79108298], [-5.76011896, 35.79062796], [-5.76050127, 35.79011464], [-5.76070821, 35.78958917], [-5.76090705, 35.78904355], [-5.76122725, 35.78863204], [-5.76160562, 35.78836226], [-5.76196861, 35.78807974], [-5.76230252, 35.78777814], [-5.76273382, 35.78751636], [-5.76316237, 35.78735137], [-5.76334965, 35.78719175], [-5.76328444, 35.78697085], [-5.76315868, 35.78671026], [-5.76378882, 35.78610134], [-5.76405144, 35.78573287], [-5.76466751, 35.78552783], [-5.76505494, 35.78555131], [-5.76552141, 35.78563857], [-5.76604235, 35.78558254], [-5.76641607, 35.78528106], [-5.76649141, 35.78483868], [-5.76638651, 35.78438902], [-5.7663573, 35.78395903], [-5.76646256, 35.78361595], [-5.76680541, 35.78322482], [-5.76743245, 35.78297377], [-5.76778555, 35.78283882], [-5.76813984, 35.78273153], [-5.76849115, 35.78274417], [-5.76909983, 35.78288162], [-5.76949084, 35.78249037], [-5.76977885, 35.78213334], [-5.77020586, 35.78209352], [-5.77030492, 35.78190362], [-5.7704041, 35.78171515], [-5.77057517, 35.78157306], [-5.77084994, 35.78145933], [-5.77121067, 35.78130543], [-5.77167666, 35.78110242], [-5.77226412, 35.78083992], [-5.77284968, 35.78063655], [-5.77329826, 35.78048122], [-5.77359605, 35.78036451], [-5.7737596, 35.78022063], [-5.7738651, 35.78004313], [-5.77403975, 35.77989554], [-5.77432346, 35.77978086], [-5.77464855, 35.77965605], [-5.77492535, 35.77953613], [-5.77511013, 35.77936745], [-5.77529454, 35.77914584], [-5.77565098, 35.77897596], [-5.77623415, 35.77892184], [-5.77705205, 35.77876675], [-5.77787125, 35.77842724], [-5.7784909, 35.77810323], [-5.77900422, 35.77777648], [-5.7790029, 35.77737403], [-5.77988541, 35.77695322], [-5.78065717, 35.77669513], [-5.78118265, 35.77656913], [-5.78156137, 35.77658868], [-5.78196335, 35.77668714], [-5.78249967, 35.77669966], [-5.78318465, 35.77659464], [-5.78400326, 35.77645814], [-5.78469241, 35.77630401], [-5.78525341, 35.77615607], [-5.78571856, 35.77597654], [-5.79218137, 35.77600765], [-5.79286706, 35.77637076], [-5.79357255, 35.77666128], [-5.79432845, 35.77693558], [-5.79513192, 35.77713251], [-5.79592526, 35.77728856], [-5.79672694, 35.77741122], [-5.79729807, 35.77753663], [-5.79768085, 35.77765763], [-5.79807353, 35.77784812], [-5.79868555, 35.77818203], [-5.79956985, 35.77869988], [-5.80041325, 35.77919281], [-5.80104673, 35.77972353], [-5.80147767, 35.78022504], [-5.80199456, 35.78057754], [-5.80266702, 35.780761], [-5.80331933, 35.78090107], [-5.8039062, 35.781093], [-5.80425334, 35.781461], [-5.80414522, 35.78196621], [-5.80361843, 35.78242755], [-5.80305195, 35.78268814], [-5.80271947, 35.78285992], [-5.80257118, 35.78304446], [-5.8017627, 35.78372324], [-5.80124462, 35.78382421], [-5.80078566, 35.78398001], [-5.80028415, 35.78418171], [-5.79964304, 35.78443241], [-5.79900455, 35.78462136], [-5.79860997, 35.78480434], [-5.79833496, 35.78503954], [-5.79794681, 35.7852807], [-5.79750431, 35.78548074], [-5.79719675, 35.78577566], [-5.79702175, 35.78622603], [-5.79694152, 35.78667021], [-5.79707444, 35.78713465], [-5.79747248, 35.78768051], [-5.79818118, 35.78810442], [-5.79894435, 35.78807795], [-5.79970384, 35.78771198], [-5.80052602, 35.78715301], [-5.80120528, 35.78670812], [-5.80175102, 35.78637338], [-5.80217004, 35.78616691], [-5.80251944, 35.78604734], [-5.80285203, 35.78606224], [-5.80318511, 35.78619957], [-5.8035506, 35.78627896], [-5.80389845, 35.78643847], [-5.80419815, 35.78662193], [-5.80437565, 35.78698015], [-5.80437887, 35.78751075], [-5.80418515, 35.7879014], [-5.80380142, 35.78815222], [-5.80330575, 35.78835416], [-5.80284464, 35.78838861], [-5.80242956, 35.78830791], [-5.80205333, 35.78834093], [-5.80183554, 35.788607], [-5.80199111, 35.78905654], [-5.80239177, 35.78960586], [-5.80247045, 35.79005766], [-5.80198216, 35.79036844], [-5.80110085, 35.79055142], [-5.80019176, 35.79070091], [-5.79933465, 35.79082775], [-5.79873896, 35.79092896], [-5.79832792, 35.79092038], [-5.79792285, 35.7908349], [-5.79743958, 35.79082751], [-5.79692292, 35.79092443], [-5.79635322, 35.79102755], [-5.79579735, 35.79077244], [-5.79573643, 35.79116154], [-5.79592705, 35.79147685], [-5.79625905, 35.79166865], [-5.79660451, 35.79178214], [-5.79693902, 35.79179084], [-5.79734826, 35.79175234], [-5.79801714, 35.79176962], [-5.79903603, 35.79175615], [-5.80017924, 35.79170847], [-5.80146325, 35.79173493], [-5.80257142, 35.79174125], [-5.80348527, 35.79150474], [-5.80422235, 35.79119778], [-5.8048346, 35.79087627], [-5.80540633, 35.79060805], [-5.80606174, 35.79034936], [-5.80669725, 35.79012501], [-5.80707836, 35.7897917], [-5.80730855, 35.7893033], [-5.80760551, 35.78892755], [-5.80799663, 35.78883207], [-5.80851853, 35.78894162], [-5.8091675, 35.78910828], [-5.80977237, 35.78931415], [-5.81007266, 35.78933406], [-5.81016517, 35.78952515], [-5.81025434, 35.78971624], [-5.81041765, 35.78986275], [-5.81072092, 35.78997636], [-5.81121147, 35.79010594], [-5.81192803, 35.79023504], [-5.81282103, 35.79039931], [-5.81394136, 35.7906028], [-5.8150115, 35.79086006], [-5.81591165, 35.79106343], [-5.8165282, 35.79124785], [-5.81716561, 35.79145193], [-5.81824493, 35.79170871], [-5.81968904, 35.79190481], [-5.82073796, 35.79204917], [-5.82132328, 35.79215705], [-5.82159591, 35.79232717], [-5.82179368, 35.79263425], [-5.82207632, 35.79304063], [-5.82236111, 35.793401], [-5.82270265, 35.79362774], [-5.82310665, 35.79369664], [-5.82364488, 35.79375935], [-5.82436991, 35.79381645], [-5.82520556, 35.79430115], [-5.82587516, 35.79451728], [-5.82649314, 35.79480791], [-5.82701886, 35.7950803], [-5.82745337, 35.79528975], [-5.82782936, 35.7951225], [-5.82799077, 35.79499877], [-5.82824814, 35.79501021], [-5.82856643, 35.79510331], [-5.82894182, 35.79511416], [-5.82945406, 35.79500854], [-5.83017612, 35.79487061], [-5.83104086, 35.79471517], [-5.83202493, 35.79457271], [-5.83279943, 35.79441667], [-5.83339357, 35.79427326], [-5.83389545, 35.79415131], [-5.83437908, 35.79413974], [-5.83479333, 35.79425204], [-5.83515644, 35.79444206], [-5.8355242, 35.79476917], [-5.83598948, 35.79522944], [-5.83671772, 35.79575396], [-5.83753335, 35.79614973], [-5.83871734, 35.79684842], [-5.83945036, 35.79694521], [-5.83997047, 35.79707158], [-5.84027994, 35.79719114], [-5.84042633, 35.7973417], [-5.84064806, 35.79767215], [-5.84100795, 35.79779577], [-5.84169376, 35.79793966], [-5.84267545, 35.7980684], [-5.84356046, 35.7981621], [-5.84428108, 35.79815066], [-5.84472311, 35.79812253], [-5.84504092, 35.79877496], [-5.84522927, 35.79931176], [-5.84553957, 35.79991424], [-5.84597743, 35.80051017], [-5.84633994, 35.80090368], [-5.84678304, 35.80104315], [-5.84744501, 35.80094886], [-5.84808671, 35.8007071], [-5.84850895, 35.80048943], [-5.84870994, 35.80023587], [-5.84878588, 35.79987812], [-5.84933996, 35.79927266], [-5.84958494, 35.79889262], [-5.84990883, 35.79848564], [-5.85021806, 35.79809964], [-5.85056996, 35.79771602], [-5.86021483, 35.79764092], [-5.86062014, 35.79760563], [-5.86105025, 35.79765523], [-5.86142981, 35.79766285], [-5.86150122, 35.79728174], [-5.8616662, 35.79697061], [-5.86236942, 35.79671776], [-5.86346173, 35.79666042], [-5.86434591, 35.79676533], [-5.86502683, 35.79690957], [-5.86571574, 35.79708397], [-5.86654413, 35.79729247], [-5.8672868, 35.79757476], [-5.86795735, 35.7978549], [-5.86880755, 35.79814565], [-5.86981761, 35.79835713], [-5.87060714, 35.79848826], [-5.8711766, 35.79848385], [-5.87158752, 35.79836285], [-5.87194932, 35.79822052], [-5.87236202, 35.7980659], [-5.87284744, 35.79791892], [-5.87331772, 35.79773986], [-5.87804842, 35.79774344], [-5.87851226, 35.79792035], [-5.87906682, 35.79805815], [-5.87973905, 35.79818952], [-5.88054025, 35.79830754], [-5.88126147, 35.79847836], [-5.88200355, 35.79876852], [-5.88284564, 35.79925251], [-5.88667595, 35.79928625], [-5.88715756, 35.79932487], [-5.88763905, 35.79949105], [-5.88799262, 35.79967904], [-5.88819325, 35.79993868], [-5.88836586, 35.80031455], [-5.88868511, 35.80068386], [-5.88920104, 35.80097497], [-5.88998675, 35.80119872], [-5.89093995, 35.80118537], [-5.89173591, 35.80094027], [-5.89231956, 35.80066764], [-5.89282215, 35.80044794], [-5.89326501, 35.80038595], [-5.89973915, 35.80057895], [-5.90006673, 35.80070496], [-5.90043604, 35.80070257], [-5.90093327, 35.80057144], [-5.90161395, 35.80041766], [-5.90240645, 35.80030978], [-5.90337825, 35.80037713], [-5.90438795, 35.80060983], [-5.90536678, 35.80082142], [-5.90615332, 35.80098927], [-5.90676725, 35.80111802], [-5.90708947, 35.80127394], [-5.90722084, 35.80144536], [-5.90766442, 35.80141485], [-5.90808666, 35.80120945], [-5.92191582, 35.84330543], [-5.93574498, 35.8854014], [-5.94957414, 35.92749738], [-5.96340331, 35.96959335], [-5.97723247, 36.01168933], [-5.99106163, 36.0537853], [-6.00489079, 36.09588128], [-6.01871995, 36.13797725], [-6.03254912, 36.18007323], [-6.03232765, 36.18003797], [-6.03153265, 36.18003666], [-6.03092861, 36.18015134], [-6.0305171, 36.18030262], [-6.03018022, 36.18049455], [-6.02989745, 36.1804744], [-6.02948797, 36.18067575], [-6.02902675, 36.1810199], [-6.02855623, 36.18174827], [-6.02824724, 36.18277395], [-6.02801967, 36.18374205], [-6.02778387, 36.18465376], [-6.02746546, 36.18532574], [-6.02715695, 36.18576586], [-6.02680373, 36.18612981], [-6.02140284, 36.18607354], [-6.0202769, 36.18589735], [-6.01903331, 36.18575954], [-6.01819587, 36.18562567], [-6.01773858, 36.18549895], [-6.01738775, 36.18531585], [-6.0169394, 36.18503332], [-6.01633728, 36.18463945], [-6.01567006, 36.18434894], [-6.01473486, 36.1842041], [-6.01351941, 36.18426883], [-6.01269615, 36.18452537], [-6.01232255, 36.18479824], [-6.01197255, 36.1849488], [-6.01139617, 36.18493521], [-6.010728, 36.18480384], [-6.01004183, 36.18465495], [-6.00951326, 36.18449914], [-6.00912297, 36.18436646], [-6.00880075, 36.18423545], [-6.0085386, 36.18411934], [-6.00834823, 36.18395245], [-6.00814927, 36.18370354], [-6.00783181, 36.18344271], [-6.00746012, 36.18325615], [-6.00697362, 36.18286073], [-6.00675428, 36.1825217], [-6.00641406, 36.18241453], [-6.00580287, 36.18226802], [-6.00490534, 36.18205476], [-6.00397134, 36.18172336], [-6.00054324, 36.18164885], [-6.00032747, 36.18127573], [-6.00003767, 36.18110955], [-5.99952924, 36.18092465], [-5.99896407, 36.18067861], [-5.99847674, 36.18047833], [-5.99799216, 36.18029416], [-5.99742246, 36.18009055], [-5.99685967, 36.17983305], [-5.99641931, 36.17963028], [-5.99606192, 36.17946684], [-5.99568343, 36.17933512], [-5.99517322, 36.17919385], [-5.99451876, 36.17905843], [-5.99390972, 36.17890596], [-5.99337435, 36.17876911], [-5.99295211, 36.17865634], [-5.99260211, 36.1786381], [-5.99225557, 36.17867637], [-5.9918493, 36.1786741], [-5.99134874, 36.17870915], [-5.99076831, 36.17873514], [-5.99001658, 36.17852604], [-5.98916864, 36.17807174], [-5.98844826, 36.17772055], [-5.98766506, 36.17748344], [-5.98668325, 36.17726851], [-5.98588324, 36.17701244], [-5.98535383, 36.17685437], [-5.98485255, 36.17685545], [-5.9841398, 36.17701673], [-5.98325705, 36.17709064], [-5.98244345, 36.17699254], [-5.98163545, 36.17677236], [-5.98085141, 36.17642415], [-5.97707987, 36.17633915], [-5.9765625, 36.17661834], [-5.97470415, 36.17664695], [-5.97423816, 36.17681825], [-5.97372091, 36.17695868], [-5.97317922, 36.17712247], [-5.97258127, 36.17732584], [-5.97201073, 36.17758656], [-5.9715687, 36.17778933], [-5.97121668, 36.17794836], [-5.97086942, 36.17807555], [-5.97043514, 36.17823041], [-5.96985304, 36.17843115], [-5.96917486, 36.17871165], [-5.96844888, 36.17898846], [-5.9676789, 36.17926967], [-5.96689451, 36.17947304], [-5.96618736, 36.17963254], [-5.96552408, 36.17976165], [-5.96502137, 36.17990041], [-5.96462345, 36.18002975], [-5.96420562, 36.18017375], [-5.96372306, 36.18031681], [-5.96325564, 36.18049502], [-5.95920885, 36.18035471], [-5.95887184, 36.18067551], [-5.95857644, 36.1809442], [-5.95807397, 36.18113911], [-5.95716107, 36.18131614], [-5.95583177, 36.18151677], [-5.95472586, 36.1817733], [-5.95400918, 36.18197405], [-5.95357502, 36.18213344], [-5.95324755, 36.18226326], [-5.95290506, 36.18242288], [-5.95248425, 36.18262577], [-5.9519968, 36.18288744], [-5.9515624, 36.18309295], [-5.95119297, 36.18325722], [-5.95085335, 36.18338704], [-5.95052087, 36.18352234], [-5.95018256, 36.18365025], [-5.94981456, 36.18380976], [-5.94937611, 36.18400872], [-5.94886935, 36.18427527], [-5.94841135, 36.18452954], [-5.94805765, 36.18482006], [-5.94783795, 36.18512571], [-5.94637418, 36.18638384], [-5.94568431, 36.18638384], [-5.94499433, 36.18694186], [-5.94122934, 36.18691444], [-5.94077015, 36.18674886], [-5.94027877, 36.18660963], [-5.93979657, 36.18642604], [-5.93924737, 36.18615603], [-5.93862283, 36.18579471], [-5.9381628, 36.18554485], [-5.93791544, 36.18535495], [-5.93768156, 36.1847769], [-5.93771422, 36.18437803], [-5.93782651, 36.18401492], [-5.93778253, 36.18369555], [-5.93747342, 36.18340754], [-5.93698466, 36.18315744], [-5.93638062, 36.18289256], [-5.93579805, 36.18269396], [-5.93534327, 36.18253446], [-5.93495774, 36.18240631], [-5.93454015, 36.18227065], [-5.93406415, 36.18214095], [-5.93361402, 36.18197763], [-5.93316126, 36.18177462], [-5.93266833, 36.18151653], [-5.93220055, 36.18131006], [-5.93203914, 36.18482411], [-5.931813, 36.18524253], [-5.93158734, 36.18567336], [-5.93126905, 36.18598092], [-5.93087196, 36.18605006], [-5.93034327, 36.18595386], [-5.92962825, 36.18583655], [-5.92882526, 36.18568742], [-5.92797303, 36.18539083], [-5.92737985, 36.18469274], [-5.92709661, 36.18364525], [-5.92693627, 36.18277693], [-5.92681646, 36.18217385], [-5.9264214, 36.18186247], [-5.92608404, 36.18258226], [-5.92597151, 36.1834439], [-5.92596412, 36.18458295], [-5.92596436, 36.18538368], [-5.92575216, 36.18578386], [-5.92534471, 36.18594778], [-5.92472458, 36.18606293], [-5.92391443, 36.18618214], [-5.92317271, 36.18634784], [-5.92259514, 36.18646014], [-5.92212081, 36.18658364], [-5.92162836, 36.18658125], [-5.9212054, 36.18646002], [-5.92084265, 36.18633711], [-5.92047751, 36.18627095], [-5.92005003, 36.18630195], [-5.91956365, 36.18629146], [-5.91913462, 36.18618524], [-5.91877425, 36.18605256], [-5.91844034, 36.18590474], [-5.91808021, 36.18576872], [-5.91762614, 36.18560326], [-5.91704917, 36.18539834], [-5.91647136, 36.18513668], [-5.91601431, 36.18493176], [-5.91564786, 36.18476725], [-5.91531157, 36.18463552], [-5.91497564, 36.18449497], [-5.91463411, 36.18436384], [-5.91428936, 36.18422031], [-5.91394401, 36.18408835], [-5.91359866, 36.18394411], [-5.91325355, 36.18380117], [-5.91290855, 36.18362308], [-5.91255808, 36.18356216], [-5.91222823, 36.18338466], [-5.91190577, 36.18324637], [-5.91157496, 36.18311703], [-5.91115797, 36.18300593], [-5.91051304, 36.1828469], [-5.90962541, 36.18255663], [-5.908867, 36.18200767], [-5.90840554, 36.1813271], [-5.90805554, 36.18074155], [-5.90774465, 36.18032932], [-5.90731883, 36.18004894], [-5.90681195, 36.17988014], [-5.90636694, 36.17973995], [-5.90599442, 36.17961526], [-5.90565372, 36.17947555], [-5.90532172, 36.17934716], [-5.9049921, 36.17921102], [-5.9046514, 36.17908025], [-5.90425265, 36.17889607], [-5.90372193, 36.17862284], [-5.90309131, 36.17825615], [-5.90262878, 36.17799842], [-5.90231347, 36.17761076], [-5.90232778, 36.17757583], [-5.90159655, 36.17716443], [-5.90072703, 36.17660904], [-5.89986372, 36.17606366], [-5.89901638, 36.17551148], [-5.89840436, 36.17511785], [-5.89800704, 36.17478955], [-5.89770186, 36.17448413], [-5.89729655, 36.17422676], [-5.89685714, 36.17406428], [-5.8965764, 36.17391121], [-5.89244545, 36.17032003], [-5.89235055, 36.17012823], [-5.89213657, 36.16995478], [-5.89174747, 36.16971827], [-5.89127183, 36.16933835], [-5.89088535, 36.16895735], [-5.8904798, 36.16862905], [-5.89001095, 36.16831934], [-5.88951993, 36.16792226], [-5.88913691, 36.16754305], [-5.88875532, 36.16723478], [-5.88837278, 36.16699445], [-5.88805032, 36.16672885], [-5.88766313, 36.16633272], [-5.88705218, 36.16608405], [-5.88662148, 36.16588998], [-5.88608468, 36.16559434], [-5.88547575, 36.16524816], [-5.88479447, 36.16483176], [-5.88418901, 36.16448915], [-5.88365865, 36.16419494], [-5.88323152, 36.16398573], [-5.88286412, 36.16378963], [-5.88254106, 36.16374862], [-5.88195217, 36.16337395], [-5.88134575, 36.16301942], [-5.88063383, 36.16257596], [-5.87986827, 36.16209733], [-5.87903738, 36.16155243], [-5.87833464, 36.16114235], [-5.87768745, 36.16083527], [-5.87703526, 36.16063881], [-5.87554407, 36.15948653], [-5.875422, 36.15920854], [-5.87517977, 36.15886533], [-5.87475252, 36.15836501], [-5.87415195, 36.15773845], [-5.87374401, 36.15729344], [-5.87348616, 36.15708983], [-5.87324154, 36.15701973], [-5.87106836, 36.15526235], [-5.87085176, 36.15497351], [-5.87052465, 36.15471375], [-5.87014437, 36.15449405], [-5.86973941, 36.15417564], [-5.86925471, 36.15367687], [-5.86857665, 36.15298641], [-5.86790705, 36.15227985], [-5.86721075, 36.15156925], [-5.86664903, 36.15099585], [-5.86607611, 36.15053034], [-5.86546504, 36.15015185], [-5.86479688, 36.14976346], [-5.86419702, 36.14947081], [-5.86240911, 36.1480267], [-5.86229324, 36.14775336], [-5.86211312, 36.14745975], [-5.86186922, 36.14710891], [-5.8615123, 36.14668441], [-5.86110222, 36.14624763], [-5.86058235, 36.14583623], [-5.86010075, 36.14553416], [-5.85973573, 36.14524341], [-5.85951233, 36.14494896], [-5.8576436, 36.14349127], [-5.85708845, 36.14330685], [-5.85663784, 36.14300597], [-5.85625434, 36.14261353], [-5.85577583, 36.14221203], [-5.85527515, 36.14195633], [-5.85472834, 36.14180112], [-5.85416126, 36.14170206], [-5.85381472, 36.14156961], [-5.85345876, 36.14105845], [-5.85314047, 36.14063466], [-5.85260665, 36.14005494], [-5.85200906, 36.13941491], [-5.85137177, 36.13876176], [-5.85097361, 36.13833475], [-5.85068941, 36.13811874], [-5.85031092, 36.13791084], [-5.84983981, 36.13754284], [-5.84943855, 36.13707304], [-5.84905434, 36.13648045], [-5.84872043, 36.13582003], [-5.84839451, 36.13527393], [-5.84802461, 36.1346997], [-5.84737706, 36.13457835], [-5.84703195, 36.13444626], [-5.84662247, 36.13425922], [-5.84608197, 36.13394022], [-5.84547651, 36.13344705], [-5.84508622, 36.13300431], [-5.8447988, 36.13261986], [-5.84440935, 36.13217854], [-5.84380436, 36.13168883], [-5.84325922, 36.13137472], [-5.84283304, 36.13118374], [-5.84246123, 36.13101482], [-5.84213853, 36.1307621], [-5.84191775, 36.13045502], [-5.84173322, 36.13010287], [-5.84157455, 36.12970221], [-5.84140134, 36.12928975], [-5.84124291, 36.12880278], [-5.8410753, 36.12817967], [-5.84091592, 36.12742555], [-5.84069312, 36.12683272], [-5.84035861, 36.12634516], [-5.83988905, 36.12583435], [-5.83950353, 36.12537158], [-5.83868933, 36.12476075], [-5.83844471, 36.12469101], [-5.83826637, 36.12455142], [-5.83812666, 36.12432206], [-5.83793807, 36.12402666], [-5.83769131, 36.12367117], [-5.83737314, 36.12327564], [-5.83712077, 36.12292588], [-5.83689284, 36.12260795], [-5.83664107, 36.12225962], [-5.83632445, 36.12186944], [-5.836079, 36.12152624], [-5.83588815, 36.12124038], [-5.83573282, 36.1209743], [-5.83551907, 36.1206696], [-5.83519161, 36.12024045], [-5.83471751, 36.11965406], [-5.83429456, 36.11905551], [-5.83385181, 36.11849666], [-5.83334494, 36.11790764], [-5.83273625, 36.11721456], [-5.83233094, 36.11661136], [-5.83205307, 36.11611485], [-5.83170545, 36.11555672], [-5.83113205, 36.11488736], [-5.83100605, 36.1142894], [-5.83073044, 36.11418211], [-5.83040297, 36.11399007], [-5.83007801, 36.11358702], [-5.82984757, 36.11303282], [-5.82965875, 36.11252427], [-5.82950175, 36.11208892], [-5.8293339, 36.11175513], [-5.82917476, 36.11148441], [-5.82897794, 36.11119986], [-5.82873285, 36.11079621], [-5.82840264, 36.11018407], [-5.82808197, 36.10947835], [-5.82770586, 36.10897315], [-5.82730937, 36.10864305], [-5.82696414, 36.10823131], [-5.82674098, 36.10771573], [-5.82657373, 36.10730398], [-5.82643831, 36.10704637], [-5.82623684, 36.10689807], [-5.82592726, 36.10673845], [-5.82559645, 36.10642827], [-5.82535982, 36.10598946], [-5.82517874, 36.10547435], [-5.82506037, 36.10484874], [-5.82439208, 36.10411024], [-5.82453251, 36.10352695], [-5.82467735, 36.10309923], [-5.82470143, 36.10278082], [-5.82456768, 36.10248494], [-5.82429278, 36.10219133], [-5.82374823, 36.10198784], [-5.82296515, 36.10202265], [-5.82217932, 36.10221195], [-5.82153451, 36.1022439], [-5.82111287, 36.10204816], [-5.82087433, 36.10180211], [-5.82059193, 36.10161173], [-5.82017612, 36.1014111], [-5.81980872, 36.10108554], [-5.81956422, 36.10072505], [-5.8191992, 36.10050178], [-5.81849313, 36.10040331], [-5.81747615, 36.1003108], [-5.81627965, 36.1000967], [-5.81551492, 36.09948027], [-5.81507063, 36.09841025], [-5.81464434, 36.09747672], [-5.81432951, 36.0969249], [-5.81405628, 36.09658122], [-5.81402755, 36.09640074], [-5.81380737, 36.09612155], [-5.81363082, 36.09584212], [-5.8134526, 36.09556246], [-5.81328988, 36.09528387], [-5.81311226, 36.09500885], [-5.81294763, 36.09474015], [-5.81276751, 36.09447205], [-5.81259632, 36.09417081], [-5.81240368, 36.09376526], [-5.81222701, 36.09321415], [-5.81208313, 36.09258771], [-5.81208718, 36.09184301], [-5.81224251, 36.09106958], [-5.81242931, 36.09027445], [-5.81259584, 36.08971655], [-5.81263173, 36.08936524], [-5.81253088, 36.08909667], [-5.81232286, 36.08887923], [-5.81180358, 36.08876288], [-5.81084776, 36.08878684], [-5.80968356, 36.08891857], [-5.80825591, 36.08906531], [-5.80673242, 36.08921146], [-5.80485415, 36.08931804], [-5.80409515, 36.08865285], [-5.80397046, 36.08755112], [-5.80380201, 36.08675837], [-5.80363524, 36.08615828], [-5.80345285, 36.08569562], [-5.80328584, 36.0852921], [-5.80310535, 36.08496213], [-5.80293918, 36.08468366], [-5.80276155, 36.08441591], [-5.80260503, 36.08411014], [-5.80244362, 36.08370483], [-5.80228603, 36.08319891], [-5.80203497, 36.08271897], [-5.80160487, 36.08218706], [-5.80099225, 36.08156204], [-5.8005619, 36.08107972], [-5.80031085, 36.08075082], [-5.80015504, 36.08048475], [-5.79999936, 36.08021975], [-5.79985034, 36.07991743], [-5.79966617, 36.07954645], [-5.79943907, 36.07914221], [-5.79910493, 36.07888305], [-5.79873192, 36.07886434], [-5.79836142, 36.07893395], [-5.79819357, 36.07882237], [-5.79819357, 36.07854354], [-5.79643941, 36.07725835], [-5.79525757, 36.07735944], [-5.79436564, 36.07749546], [-5.79366612, 36.07763052], [-5.79317868, 36.07777774], [-5.79282224, 36.07791305], [-5.7924962, 36.07805932], [-5.79213762, 36.07819414], [-5.79170418, 36.07833803], [-5.79121566, 36.0784626], [-5.79080832, 36.07858467], [-5.79027367, 36.07890356], [-5.78987992, 36.07928586], [-5.78921413, 36.07975554], [-5.78859997, 36.08005774], [-5.78819072, 36.08031285], [-5.78776503, 36.08074474], [-5.78716016, 36.08137357], [-5.78666008, 36.08193755], [-5.78627038, 36.08239472], [-5.78602636, 36.08274066], [-5.78584075, 36.08302546], [-5.78567553, 36.08329463], [-5.78546655, 36.08356416], [-5.78523123, 36.08430314], [-5.78483701, 36.08466184], [-5.78463984, 36.08498085], [-5.78424537, 36.08533955], [-5.78408051, 36.08803415], [-5.78353083, 36.08823752], [-5.78319454, 36.08837354], [-5.78284585, 36.08851707], [-5.78249574, 36.08869767], [-5.77733076, 36.08864605], [-5.77654243, 36.08831525], [-5.77576351, 36.08809865], [-5.77506542, 36.08794057], [-5.77438676, 36.08781445], [-5.77380037, 36.08767605], [-5.77323604, 36.08754396], [-5.77264094, 36.0873996], [-5.77197731, 36.08726954], [-5.7713896, 36.08713531], [-5.77087367, 36.08701265], [-5.77041852, 36.08684325], [-5.76989162, 36.08657265], [-5.76918817, 36.08613586], [-5.76840067, 36.08564806], [-5.76758385, 36.08512366], [-5.76704693, 36.08479536], [-5.76681423, 36.08459854], [-5.76671374, 36.08442962], [-5.76655424, 36.08429635], [-5.76627493, 36.08418775], [-5.76564515, 36.08395171], [-5.76536524, 36.08359933], [-5.76409054, 36.08241618], [-5.7639966, 36.08221388], [-5.76381123, 36.08206415], [-5.76351631, 36.08195114], [-5.76318121, 36.08182704], [-5.76289678, 36.08171475], [-5.76272595, 36.08157671], [-5.76261795, 36.0814116], [-5.76242197, 36.08125293], [-5.76204002, 36.08102286], [-5.76150405, 36.08059633], [-5.76092696, 36.08002377], [-5.76026964, 36.07934523], [-5.75976133, 36.07874346], [-5.75728714, 36.07678294], [-5.7570461, 36.07670414], [-5.75682426, 36.07652736], [-5.75652325, 36.07621074], [-5.75606513, 36.07583761], [-5.75567567, 36.07557225], [-5.75546145, 36.07532823], [-5.75534642, 36.07504761], [-5.75518155, 36.07483804], [-5.75490975, 36.07465994], [-5.75456941, 36.07438755], [-5.75413442, 36.07402015], [-5.75339997, 36.07357645], [-5.75246012, 36.07307994], [-5.75164998, 36.0724138], [-5.75124443, 36.07179582], [-5.75103092, 36.07145655], [-5.75073183, 36.07131124], [-5.75017941, 36.07120025], [-5.74933636, 36.07109475], [-5.74837971, 36.07095504], [-5.74725604, 36.07076991], [-5.74611855, 36.07046688], [-5.74487853, 36.07002866], [-5.74355412, 36.0693593], [-5.74281716, 36.06920207], [-5.74272931, 36.06901288], [-5.74261951, 36.06882703], [-5.74236655, 36.0686897], [-5.74189556, 36.06857812], [-5.74124765, 36.06840515], [-5.74041748, 36.06813145], [-5.73961532, 36.06775272], [-5.73901606, 36.06747544], [-5.7384665, 36.06729126], [-5.7378149, 36.06716156], [-5.73713994, 36.06702626], [-5.73641825, 36.06689715], [-5.73573244, 36.06675315], [-5.73507547, 36.0666188], [-5.73457623, 36.06647301], [-5.73415875, 36.0663383], [-5.73364747, 36.0661931], [-5.73297024, 36.06606185], [-5.73228407, 36.06592596], [-5.73166871, 36.06580603], [-5.73132086, 36.06565487], [-5.73116815, 36.06547391], [-5.73101342, 36.06533468], [-5.73079121, 36.06525373], [-5.73037457, 36.06506515], [-5.73013675, 36.06498635], [-5.72992146, 36.06480765], [-5.72962916, 36.06448376], [-5.72916424, 36.06409907], [-5.72870815, 36.06383646], [-5.72832167, 36.06366205], [-5.72797596, 36.06353724], [-5.72764397, 36.06340742], [-5.72731161, 36.06328464], [-5.72695601, 36.06313062], [-5.72652805, 36.06292915], [-5.72599065, 36.06262851], [-5.72538066, 36.06228066], [-5.72472215, 36.06188273], [-5.72420394, 36.06160843], [-5.72382212, 36.0614295], [-5.72349906, 36.0613023], [-5.72318304, 36.06116724], [-5.72282016, 36.06103814], [-5.72231591, 36.06089485], [-5.72160077, 36.06076264], [-5.72074366, 36.06061816], [-5.71974754, 36.06047535], [-5.71888363, 36.06029725], [-5.71659696, 36.06019127], [-5.71614885, 36.06023824], [-5.71549427, 36.06034243], [-5.71487534, 36.06004036], [-5.71415675, 36.05991101], [-5.71345615, 36.05977976], [-5.71279228, 36.05968165], [-5.71116722, 36.05830312], [-5.71075606, 36.05819023], [-5.71016192, 36.05814195], [-5.7092483, 36.05835366], [-5.70820987, 36.05881405], [-5.70738006, 36.05916476], [-5.70678115, 36.05938745], [-5.70628154, 36.05957305], [-5.70591784, 36.05981875], [-5.70567322, 36.0600574], [-5.70529187, 36.06023765], [-5.70462382, 36.06042337], [-5.70386016, 36.06069124], [-5.70314085, 36.06096411], [-5.70253861, 36.06124735], [-5.70209324, 36.06145215], [-5.70173883, 36.06160367], [-5.70141041, 36.06170022], [-5.6999644, 36.06296396], [-5.69960654, 36.06352174], [-5.69913971, 36.06397307], [-5.69875646, 36.06421888], [-5.69852293, 36.06439733], [-5.69831777, 36.06462574], [-5.69799566, 36.06488395], [-5.69761455, 36.06512213], [-5.69725645, 36.06541181], [-5.69695652, 36.06572485], [-5.69660318, 36.066015], [-5.69623077, 36.06625676], [-5.69590843, 36.06652665], [-5.69565713, 36.06677151], [-5.69528341, 36.06693757], [-5.69471574, 36.06705797], [-5.69420087, 36.06718731], [-5.69380498, 36.06728232], [-5.69350016, 36.06733072], [-5.69327605, 36.06735051], [-5.69306254, 36.06756675], [-5.69256902, 36.06806386], [-5.69146335, 36.06860435], [-5.69000995, 36.06882966], [-5.68877745, 36.06878698], [-5.68660724, 36.06701517], [-5.68613458, 36.06680846], [-5.68564975, 36.06655145], [-5.68524516, 36.06635356], [-5.68489981, 36.0661993], [-5.68449044, 36.06607115], [-5.68383276, 36.0658915], [-5.68287206, 36.06561923], [-5.68198144, 36.06525075], [-5.68145847, 36.06499314], [-5.68116665, 36.06465304], [-5.68098521, 36.06449437], [-5.68060803, 36.06425691], [-5.68009865, 36.06384587], [-5.67961395, 36.06338537], [-5.67910492, 36.06297445], [-5.67872763, 36.06273806], [-5.67854404, 36.06258488], [-5.67845118, 36.06243098], [-5.67823756, 36.06225514], [-5.67772353, 36.06194878], [-5.67690468, 36.06142545], [-5.67600346, 36.06084251], [-5.67496204, 36.06010807], [-5.67446947, 36.05992877], [-5.67390072, 36.05956626], [-5.67338252, 36.05927825], [-5.67288625, 36.05900991], [-5.67244303, 36.0588181], [-5.67197561, 36.05864644], [-5.67140615, 36.05844796], [-5.67081106, 36.05817211], [-5.67027104, 36.05789971], [-5.6697669, 36.05762374], [-5.66934764, 36.05742455], [-5.66897273, 36.05725062], [-5.66855741, 36.05705464], [-5.66806221, 36.05678606], [-5.66753125, 36.0565207], [-5.66691816, 36.0562278], [-5.66624296, 36.05593956], [-5.66554654, 36.05558264], [-5.66047311, 36.05551815], [-5.65970492, 36.05531466], [-5.65882134, 36.05510044], [-5.65806365, 36.05482125], [-5.65749514, 36.05454767], [-5.65699935, 36.05426753], [-5.65653717, 36.05406392], [-5.65600073, 36.05390453], [-5.65536797, 36.05377984], [-5.65486491, 36.05365443], [-5.65454352, 36.05354011], [-5.65435195, 36.05337274], [-5.65416217, 36.0531218], [-5.65384996, 36.05285633], [-5.65348601, 36.05266595], [-5.65313232, 36.05251145], [-5.65280128, 36.05238485], [-5.65246975, 36.05224907], [-5.65205705, 36.05211926], [-5.65142727, 36.05195475], [-5.65056837, 36.05174828], [-5.64982104, 36.05148411], [-5.64929807, 36.05127776], [-5.64884627, 36.05112183], [-5.64797604, 36.0505414], [-5.63845563, 36.04284334], [-5.63065505, 36.03515625], [-5.62683845, 36.03117132], [-5.62438691, 36.02861154], [-5.61812973, 36.02087867], [-5.61744332, 36.02008224], [-5.61636877, 36.01858544], [-5.61063921, 36.01122284], [-5.6095649, 36.00919497], [-5.60884857, 36.00711906], [-5.60870612, 36.00652337], [-5.60920453, 36.00591314], [-5.60978985, 36.00574851], [-5.61038995, 36.0056504], [-5.61083782, 36.0053848], [-5.61131108, 36.00500023], [-5.61169434, 36.00462115], [-5.61213422, 36.0042752], [-5.61268437, 36.00389695], [-5.61321151, 36.0033921], [-5.61337066, 36.00295913], [-5.61327505, 36.00263858], [-5.61308122, 36.00237465], [-5.61289883, 36.00211668], [-5.61268342, 36.00180554], [-5.61238527, 36.00135148], [-5.61193895, 36.00072861], [-5.61142147, 36.0001471], [-5.61054134, 35.99983442], [-5.60925543, 35.99995983], [-5.60816467, 36.00045872], [-5.60755897, 36.00099015], [-5.60720515, 36.00144768], [-5.607005, 36.0018146], [-5.60681832, 36.00218487], [-5.60656476, 36.00265014], [-5.60616565, 36.00317764], [-5.60595393, 36.00348353], [-5.60588324, 36.00376987], [-5.60597324, 36.00406384], [-5.60619235, 36.00436211], [-5.60652924, 36.00462401], [-5.60684311, 36.00479245], [-5.60704207, 36.00494123], [-5.60717404, 36.00509822], [-5.60735667, 36.00521815], [-5.60759044, 36.00534964], [-5.60773516, 36.00565612], [-5.60766566, 36.00619292], [-5.60736692, 36.00674093], [-5.60690534, 36.00715375], [-5.60625243, 36.00767434], [-5.60504556, 36.00757337], [-5.60264146, 36.00781906], [-5.6026715, 36.00837433], [-5.60422325, 36.00820541], [-5.60496914, 36.00832605], [-5.60511851, 36.00859165], [-5.60490954, 36.00900185], [-5.60473037, 36.00917101], [-5.60443211, 36.00890541], [-5.60416353, 36.00902605], [-5.6044023, 36.00946057], [-5.6040349, 36.00957525], [-5.60315943, 36.00969422], [-5.60249913, 36.00968862], [-5.60210121, 36.00967514], [-5.60168672, 36.0088706], [-5.60142136, 36.00765014], [-5.60165346, 36.00740874], [-5.60339427, 36.00633585], [-5.60327816, 36.00613475], [-5.60128892, 36.00723445], [-5.60092413, 36.00758314], [-5.60137165, 36.00948751], [-5.60125566, 36.00975573], [-5.6010164, 36.01006031], [-5.60085595, 36.01054025], [-5.60057986, 36.01083601], [-5.60014737, 36.01099205], [-5.59968686, 36.01114416], [-5.5934937, 36.01116073], [-5.5931493, 36.01143956], [-5.58950734, 36.01146924], [-5.58866513, 36.01164722], [-5.58764875, 36.01179016], [-5.58663642, 36.01193428], [-5.58555686, 36.01206625], [-5.58453286, 36.01220965], [-5.58347285, 36.01234114], [-5.58254302, 36.01248145], [-5.58170652, 36.01261318], [-5.58110416, 36.01277757], [-5.58061421, 36.01298285], [-5.58006454, 36.01324475], [-5.5794661, 36.01345003], [-5.57884705, 36.01361442], [-5.57817698, 36.01374614], [-5.57758212, 36.01388633], [-5.57703638, 36.01401782], [-5.57652748, 36.01416242], [-5.57600391, 36.01429641], [-5.57549167, 36.01444185], [-5.57498634, 36.01457703], [-5.57455885, 36.01472425], [-5.57419646, 36.01485932], [-5.57385767, 36.01499546], [-5.57352233, 36.01509643], [-5.57247424, 36.01585233], [-5.57177794, 36.01605892], [-5.57111943, 36.01631725], [-5.57056463, 36.01652086], [-5.57013011, 36.01668465], [-5.56962514, 36.01681173], [-5.56878006, 36.01693761], [-5.56765807, 36.01704955], [-5.56694627, 36.01721156], [-5.56658506, 36.01745784], [-5.56617844, 36.01773751], [-5.56561875, 36.01799655], [-5.56501865, 36.01828766], [-5.56447184, 36.01855946], [-5.56396031, 36.01883614], [-5.56353533, 36.01903772], [-5.56317604, 36.01919675], [-5.56284225, 36.01932395], [-5.56251836, 36.01945925], [-5.56219745, 36.01958847], [-5.56184185, 36.01975107], [-5.56135011, 36.01995325], [-5.56061172, 36.02021325], [-5.55972564, 36.02042985], [-5.55895126, 36.02064025], [-5.55862737, 36.02075756], [-5.55787492, 36.02126741], [-5.55723596, 36.02162898], [-5.55660284, 36.02193582], [-5.55595672, 36.02219546], [-5.55537772, 36.02245843], [-5.55493307, 36.02265453], [-5.55455053, 36.02283323], [-5.55412698, 36.02303517], [-5.55364144, 36.02329254], [-5.55320334, 36.02349305], [-5.55284142, 36.02364802], [-5.55256546, 36.02376485], [-5.55239916, 36.02390814], [-5.55229282, 36.02408278], [-5.552127, 36.02422595], [-5.55185151, 36.02434254], [-5.55148935, 36.02449763], [-5.55104816, 36.02470017], [-5.55055356, 36.02496254], [-5.5501194, 36.02516961], [-5.54975104, 36.02533662], [-5.54940975, 36.02546954], [-5.54907167, 36.02560055], [-5.54873204, 36.02569795], [-5.54715645, 36.02696037], [-5.5463618, 36.02737701], [-5.54537284, 36.02789795], [-5.54437053, 36.02830565], [-5.54348326, 36.0286144], [-5.54268372, 36.02880692], [-5.54196441, 36.02896822], [-5.54121876, 36.02915025], [-5.54056728, 36.02940404], [-5.54008663, 36.02967834], [-5.53970933, 36.03007281], [-5.53934765, 36.03058088], [-5.53887403, 36.03104866], [-5.53842676, 36.03132474], [-5.53804982, 36.03149152], [-5.53771055, 36.03161144], [-5.53737772, 36.03174436], [-5.53701985, 36.03187394], [-5.53659368, 36.03201902], [-5.53608596, 36.03215444], [-5.53556585, 36.0323019], [-5.53502965, 36.03243637], [-5.53452492, 36.03257358], [-5.53405762, 36.03267956], [-5.53368342, 36.03278112], [-5.53325045, 36.03317833], [-5.53234541, 36.03335786], [-5.53136778, 36.03361106], [-5.53044546, 36.03381681], [-5.52975047, 36.03398442], [-5.52910542, 36.03411782], [-5.52828491, 36.03425026], [-5.52723372, 36.03435385], [-5.52634823, 36.03445435], [-5.52652121, 36.03515625], [-5.52598286, 36.03515625], [-5.52581024, 36.03543532], [-5.52192223, 36.03554785], [-5.52116871, 36.03607786], [-5.52053845, 36.03644741], [-5.5199362, 36.03669596], [-5.51933551, 36.03674042], [-5.51872766, 36.03664696], [-5.5180608, 36.03661573], [-5.51743746, 36.03672671], [-5.51680458, 36.03697717], [-5.51618326, 36.03743207], [-5.51560354, 36.03802693], [-5.51495862, 36.03870213], [-5.51445127, 36.03921044], [-5.51397705, 36.03952301], [-5.51354015, 36.03970575], [-5.51328135, 36.03992415], [-5.51299596, 36.04037201], [-5.51235223, 36.04030144], [-5.51183724, 36.04042947], [-5.51121116, 36.04076946], [-5.51065302, 36.04105127], [-5.51007676, 36.04123771], [-5.50935674, 36.04134405], [-5.50889373, 36.04154444], [-5.50828171, 36.04164565], [-5.50767004, 36.04178131], [-5.50703645, 36.04191375], [-5.50653625, 36.04205644], [-5.50610697, 36.04218996], [-5.50557041, 36.04235554], [-5.50485885, 36.0425601], [-5.50419295, 36.04281485], [-5.50370502, 36.04300141], [-5.50334644, 36.04314566], [-5.50307584, 36.04331553], [-5.50289845, 36.04368174], [-5.50277483, 36.0442605], [-5.50264168, 36.04473341], [-5.50251043, 36.04502404], [-5.50226665, 36.04521465], [-5.50180066, 36.04544985], [-5.50118554, 36.04578388], [-5.50072253, 36.04602015], [-5.50046074, 36.04622245], [-5.50024462, 36.04654884], [-5.49994385, 36.04707158], [-5.49964213, 36.04770625], [-5.49928987, 36.04830992], [-5.49889982, 36.04802096], [-5.49855483, 36.04820216], [-5.49820983, 36.04834604], [-5.49786484, 36.04848111], [-5.49751973, 36.04857886], [-5.49556363, 36.04991674], [-5.49443913, 36.0500108], [-5.49365365, 36.05013704], [-5.49307716, 36.05026805], [-5.49253714, 36.05045426], [-5.49187946, 36.05072987], [-5.49117875, 36.05110311], [-5.49064887, 36.05137265], [-5.49024868, 36.05156553], [-5.48983514, 36.05175972], [-5.48932111, 36.05204546], [-5.48872685, 36.05238605], [-5.48805153, 36.05280137], [-5.48742676, 36.05314624], [-5.48681402, 36.05344295], [-5.48623002, 36.05365133], [-5.48570394, 36.05383027], [-5.48516941, 36.05398262], [-5.48461843, 36.05406642], [-5.48402405, 36.05389154], [-5.48353064, 36.05338717], [-5.48327243, 36.05283582], [-5.48293543, 36.05257785], [-5.48203325, 36.05260718], [-5.48039901, 36.05271578], [-5.47941411, 36.05248463], [-5.47846997, 36.05238342], [-5.47776616, 36.05224764], [-5.47721171, 36.05211496], [-5.47672617, 36.05197227], [-5.4762274, 36.05183935], [-5.47570813, 36.05167544], [-5.47508693, 36.05147314], [-5.47435391, 36.0512166], [-5.47355115, 36.05101275], [-5.4727298, 36.05082381], [-5.47181284, 36.05060911], [-5.47099948, 36.05034471], [-5.4703474, 36.05018115], [-5.46976864, 36.05017853], [-5.46910071, 36.05033398], [-5.46839535, 36.05040276], [-5.4678601, 36.05031884], [-5.46747184, 36.05017245], [-5.46713746, 36.04997706], [-5.46364617, 36.04998875], [-5.4633584, 36.05033255], [-5.46314037, 36.05059743], [-5.46285701, 36.05075896], [-5.46243882, 36.05086923], [-5.46201324, 36.05099595], [-5.46160555, 36.05111766], [-5.46117675, 36.05125093], [-5.46076131, 36.05138588], [-5.4605093, 36.05159616], [-5.46037364, 36.05188334], [-5.46017075, 36.05212724], [-5.4597975, 36.05239034], [-5.45932651, 36.05277991], [-5.45892382, 36.05316556], [-5.45846975, 36.05346715], [-5.45794451, 36.053653], [-5.45742273, 36.05379868], [-5.45689201, 36.05392325], [-5.45638025, 36.0540632], [-5.45585728, 36.05419683], [-5.45535004, 36.05434418], [-5.45482695, 36.05447948], [-5.45430553, 36.05461585], [-5.45374036, 36.05471695], [-5.45348883, 36.05494213], [-5.45294285, 36.05503166], [-5.45216084, 36.05514836], [-5.45116985, 36.05526495], [-5.45050824, 36.05545497], [-5.45009387, 36.055776], [-5.44965672, 36.05614758], [-5.44931066, 36.05638885], [-5.44912672, 36.05655765], [-5.44899416, 36.05672717], [-5.4486829, 36.05690432], [-5.44806755, 36.05715215], [-5.44733405, 36.05749464], [-5.44682503, 36.05773842], [-5.44688356, 36.05835497], [-5.44736135, 36.05892372], [-5.44773865, 36.05946267], [-5.44795263, 36.0598551], [-5.44796455, 36.06015456], [-5.44780552, 36.06043482], [-5.44754124, 36.06072283], [-5.44710958, 36.06098843], [-5.44658124, 36.06118226], [-5.44607985, 36.06137276], [-5.44505441, 36.06141984], [-5.44445932, 36.06151211], [-5.44426227, 36.06175446], [-5.44405985, 36.06222117], [-5.44373643, 36.06263137], [-5.44335735, 36.06286228], [-5.44298851, 36.06300664], [-5.44251776, 36.06324792], [-5.44271791, 36.06354666], [-5.44297445, 36.06366766], [-5.4431318, 36.06389761], [-5.44306183, 36.06426263], [-5.44275355, 36.06459975], [-5.4423418, 36.06481051], [-5.44187307, 36.06496394], [-5.44136655, 36.06508434], [-5.44093966, 36.06520844], [-5.44063282, 36.06531847], [-5.44030905, 36.06570137], [-5.44016147, 36.06597543], [-5.44004595, 36.06626225], [-5.43899357, 36.06688786], [-5.43819034, 36.06699896], [-5.43770754, 36.06725132], [-5.43737531, 36.06769085], [-5.43693686, 36.06814551], [-5.43645513, 36.06842685], [-5.43590295, 36.06859946], [-5.43527365, 36.06872201], [-5.43476713, 36.06885421], [-5.43437183, 36.06897891], [-5.43396211, 36.06911445], [-5.43344021, 36.06924582], [-5.43278325, 36.06942987], [-5.43194556, 36.06970048], [-5.43115103, 36.07006025], [-5.43065464, 36.07031083], [-5.43040717, 36.07051575], [-5.43020046, 36.07080364], [-5.42988765, 36.07119477], [-5.42955804, 36.07162261], [-5.42921186, 36.0721029], [-5.42896128, 36.07261884], [-5.42876375, 36.07318771], [-5.42859292, 36.07384658], [-5.42838204, 36.07443321], [-5.42830718, 36.07463634], [-5.42808676, 36.07492185], [-5.4279145, 36.07520735], [-5.42761922, 36.07571125], [-5.42717326, 36.07597852], [-5.42683661, 36.07609928], [-5.42639911, 36.07620001], [-5.42577803, 36.07630956], [-5.42504942, 36.07649171], [-5.42463064, 36.07697475], [-5.42458665, 36.07785165], [-5.42475402, 36.0788275], [-5.42494226, 36.079934], [-5.42512286, 36.08105695], [-5.42529106, 36.08217883], [-5.42556727, 36.08281243], [-5.42599213, 36.08303595], [-5.42642105, 36.08312964], [-5.42681515, 36.08317447], [-5.42851174, 36.08451295], [-5.42880785, 36.08461392], [-5.42913544, 36.08475006], [-5.42962492, 36.084885], [-5.43049717, 36.08503234], [-5.43170381, 36.08516741], [-5.43257582, 36.0853126], [-5.43308544, 36.08544636], [-5.43349075, 36.08559108], [-5.4339205, 36.08572543], [-5.43432534, 36.08587241], [-5.4347856, 36.08601058], [-5.43547893, 36.08615851], [-5.43639076, 36.0862776], [-5.43708324, 36.08636224], [-5.43754685, 36.08638883], [-5.43796885, 36.08643365], [-5.43843317, 36.08640826], [-5.43885446, 36.08627915], [-5.43922722, 36.08612776], [-5.43958974, 36.08601105], [-5.43995643, 36.08605886], [-5.44027793, 36.08629215], [-5.44047177, 36.08656621], [-5.44061196, 36.08680403], [-5.44100881, 36.08674395], [-5.44131112, 36.08731782], [-5.44152105, 36.08791077], [-5.44171834, 36.08841574], [-5.44197142, 36.08880711], [-5.44238067, 36.08897674], [-5.44282687, 36.08896387], [-5.44311094, 36.08916163], [-5.44327915, 36.08965182], [-5.44349885, 36.09015596], [-5.44383931, 36.09077466], [-5.44426906, 36.09178293], [-5.44444585, 36.09304416], [-5.44434965, 36.09399426], [-5.44416833, 36.0946542], [-5.44396496, 36.09511721], [-5.44379103, 36.09550154], [-5.44361567, 36.09582114], [-5.44345403, 36.09614301], [-5.44325137, 36.09657621], [-5.44299674, 36.09714985], [-5.44267035, 36.09768116], [-5.44241512, 36.09808445], [-5.44222236, 36.09845245], [-5.44209874, 36.09887028], [-5.44114447, 36.09988332], [-5.44102764, 36.10064864], [-5.44087136, 36.10121727], [-5.44071257, 36.10165644], [-5.44049335, 36.10202205], [-5.44016743, 36.10239327], [-5.43969405, 36.1027652], [-5.43930232, 36.10300553], [-5.43909454, 36.10317791], [-5.43899202, 36.10331953], [-5.43883145, 36.10336256], [-5.43850946, 36.10333931], [-5.43799305, 36.10346985], [-5.43734193, 36.10381103], [-5.43680096, 36.10416186], [-5.43641233, 36.10456502], [-5.43610418, 36.10500777], [-5.43568814, 36.10536587], [-5.43519175, 36.10558105], [-5.43476331, 36.10570896], [-5.43440604, 36.10570264], [-5.43403006, 36.10554397], [-5.43350673, 36.10526323], [-5.43277287, 36.10487306], [-5.43197918, 36.10455525], [-5.43143463, 36.10482454], [-5.43079662, 36.10494006], [-5.43046677, 36.10521781], [-5.43045843, 36.10572457], [-5.43063307, 36.10634875], [-5.43082154, 36.10707808], [-5.43098986, 36.10778022], [-5.43110502, 36.10846043], [-5.43126762, 36.10897267], [-5.43167961, 36.10938227], [-5.43271112, 36.10975611], [-5.43435562, 36.11001825], [-5.43657935, 36.11140156], [-5.43685114, 36.11183918], [-5.43714094, 36.11237764], [-5.43722427, 36.11297035], [-5.43706596, 36.11349905], [-5.43677986, 36.11402392], [-5.43644643, 36.11454272], [-5.43631494, 36.1149652], [-5.43539143, 36.11695278], [-5.43879223, 36.11755371], [-5.44192135, 36.11828971], [-5.44213963, 36.11895525], [-5.44190013, 36.12007332], [-5.44109917, 36.12012053], [-5.44024885, 36.12032986], [-5.44010651, 36.12109685], [-5.43691242, 36.12113166], [-5.43596268, 36.12064362], [-5.43562484, 36.12029445], [-5.43613541, 36.12001586], [-5.43673956, 36.11945796], [-5.43708503, 36.11907434], [-5.43699872, 36.11872566], [-5.43627167, 36.11906016], [-5.43501306, 36.12039936], [-5.43410671, 36.12029493], [-5.43298435, 36.12022507], [-5.43255258, 36.12050414], [-5.43203473, 36.12102711], [-5.43164623, 36.12148035], [-5.43104196, 36.12346792], [-5.43078303, 36.12489748], [-5.42905641, 36.12451386], [-5.42871106, 36.12486255], [-5.42802036, 36.12705934], [-5.42370105, 36.12699497], [-5.42391348, 36.1275959], [-5.42768967, 36.12776744], [-5.43098426, 36.12810814], [-5.43029785, 36.13302457], [-5.4303261, 36.13378394], [-5.42983985, 36.14361811], [-5.42815077, 36.14699757], [-5.42850947, 36.14708197], [-5.43013883, 36.14373875], [-5.43081582, 36.13387763], [-5.43193531, 36.12823248], [-5.43243027, 36.12778616], [-5.43676472, 36.12746441], [-5.44039023, 36.12690926], [-5.44150615, 36.12660885], [-5.44230318, 36.1275959], [-5.43730795, 36.12991333], [-5.43811226, 36.13097274], [-5.43932736, 36.13257396], [-5.43571377, 36.13510597], [-5.43550134, 36.13798142], [-5.43544805, 36.13995552], [-5.43532658, 36.14822471], [-5.43718326, 36.14832926], [-5.43903995, 36.14836407], [-5.44128525, 36.14857328], [-5.44138145, 36.14742744], [-5.44173038, 36.14191067], [-5.44187665, 36.1381638], [-5.44272876, 36.13094318], [-5.44411385, 36.13047123], [-5.44451022, 36.13065541], [-5.44379163, 36.13729465], [-5.44612134, 36.13789451], [-5.44632494, 36.13813043], [-5.44658005, 36.13880718], [-5.44677424, 36.1396383], [-5.44686735, 36.14050746], [-5.44668126, 36.14149237], [-5.44623435, 36.14240158], [-5.44587624, 36.14310086], [-5.44568551, 36.14360023], [-5.44570017, 36.14413905], [-5.44582605, 36.14494586], [-5.44583845, 36.14601398], [-5.44566608, 36.14679205], [-5.44539011, 36.14739382], [-5.44510055, 36.14821327], [-5.44507515, 36.14924121], [-5.44534337, 36.14991665], [-5.44511962, 36.15261555], [-5.44484222, 36.15538144], [-5.44464147, 36.15581644], [-5.44438851, 36.15620196], [-5.44404125, 36.15660763], [-5.44370484, 36.15700495], [-5.44337046, 36.1573981], [-5.44313085, 36.15777016], [-5.44289792, 36.1582334], [-5.44256687, 36.15889871], [-5.44205773, 36.15965605], [-5.44154215, 36.16036856], [-5.44102645, 36.16098428], [-5.44068932, 36.16143095], [-5.44047415, 36.16180325], [-5.44032216, 36.16218197], [-5.44016206, 36.16251457], [-5.44000792, 36.16280401], [-5.43981445, 36.16309345], [-5.43957114, 36.16343296], [-5.43923223, 36.16383958], [-5.43887305, 36.16426575], [-5.43842387, 36.16473007], [-5.43833315, 36.16530275], [-5.43780458, 36.16583145], [-5.43726361, 36.16640532], [-5.43663847, 36.16704547], [-5.43622065, 36.1675297], [-5.43597674, 36.16785967], [-5.43582094, 36.16813016], [-5.43567121, 36.16839397], [-5.43555891, 36.16866267], [-5.43400276, 36.16987634], [-5.43376362, 36.1699568], [-5.43357205, 36.17011666], [-5.43336535, 36.17037058], [-5.43304098, 36.17063761], [-5.43267405, 36.17081797], [-5.43233585, 36.17094445], [-5.4320569, 36.17104244], [-5.43180311, 36.17124045], [-5.4314121, 36.17167091], [-5.43052268, 36.1720227], [-5.43002427, 36.17240477], [-5.42851162, 36.17416882], [-5.4276818, 36.17497981], [-5.42596221, 36.17592525], [-5.42454171, 36.17642808], [-5.42381895, 36.17495966], [-5.42199981, 36.17550266], [-5.42217421, 36.17582464], [-5.42259777, 36.17572415], [-5.42282224, 36.17620695], [-5.41993117, 36.17707193], [-5.41875994, 36.17465794], [-5.41736436, 36.17504013], [-5.41691577, 36.17425561], [-5.42005587, 36.17302835], [-5.41983163, 36.17260587], [-5.41616821, 36.17403436], [-5.41721475, 36.1761868], [-5.41385055, 36.1771121], [-5.41469777, 36.17932487], [-5.41456735, 36.17952192], [-5.41429734, 36.1798532], [-5.41395152, 36.18022776], [-5.41340744, 36.18061364], [-5.4128195, 36.18087101], [-5.41227496, 36.18105066], [-5.41161847, 36.18118703], [-5.41067338, 36.18129981], [-5.40946257, 36.18130076], [-5.40859675, 36.18116951], [-5.40804172, 36.18095851], [-5.40748215, 36.18066585], [-5.40673196, 36.18037915], [-5.40564954, 36.18008685], [-5.40430546, 36.17988372], [-5.40316856, 36.17978036], [-5.40207398, 36.17982721], [-5.40082514, 36.17993092], [-5.39893365, 36.18003845], [-5.39840198, 36.17729175], [-5.40318561, 36.17651927], [-5.40286672, 36.17609024], [-5.39372504, 36.17686272], [-5.39372504, 36.17746353], [-5.39744544, 36.1773777], [-5.39797676, 36.18038166], [-5.39698637, 36.18051136], [-5.3965435, 36.18061841], [-5.39607966, 36.18076706], [-5.39378858, 36.18078852], [-5.39307082, 36.18056595], [-5.39220607, 36.18035996], [-5.39130402, 36.18018603], [-5.39019871, 36.18019247], [-5.38339114, 36.17910683], [-5.38253701, 36.17855775], [-5.38207853, 36.17806375], [-5.38179374, 36.17776585], [-5.38141763, 36.17749953], [-5.38095474, 36.177073], [-5.38062656, 36.17658544], [-5.38045561, 36.17613041], [-5.38051426, 36.1756705], [-5.38078213, 36.17521584], [-5.38248515, 36.17511666], [-5.38294482, 36.17464435], [-5.38307691, 36.17434561], [-5.3828516, 36.17420244], [-5.38244617, 36.17399383], [-5.38217771, 36.17337632], [-5.38217115, 36.17232263], [-5.38239658, 36.17143631], [-5.38274884, 36.17074132], [-5.38309097, 36.17014575], [-5.38305747, 36.16974545], [-5.38269734, 36.16954195], [-5.38206553, 36.16940534], [-5.38117695, 36.16929138], [-5.38023138, 36.16915906], [-5.37340426, 36.16424561], [-5.37106526, 36.16587627], [-5.37149048, 36.16845131], [-5.37025142, 36.16849816], [-5.36978531, 36.16832685], [-5.3692677, 36.16818631], [-5.36872566, 36.16802251], [-5.36812854, 36.16781914], [-5.36756086, 36.16755855], [-5.36712527, 36.16735566], [-5.3667767, 36.16719651], [-5.36640465, 36.16706884], [-5.36587715, 36.16691375], [-5.36513793, 36.16671455], [-5.36436152, 36.16643941], [-5.36364746, 36.16617227], [-5.36304545, 36.16589093], [-5.36258626, 36.16563594], [-5.36221147, 36.16531694], [-5.36184764, 36.16492653], [-5.36137581, 36.16452992], [-5.36093914, 36.16428006], [-5.36057365, 36.16413701], [-5.36020684, 36.16405416], [-5.35972333, 36.16391003], [-5.35904646, 36.16352594], [-5.35832632, 36.16264355], [-5.35780466, 36.1613605], [-5.35835254, 36.16085625], [-5.35812378, 36.16056645], [-5.35775554, 36.16027462], [-5.3571912, 36.16025436], [-5.35628772, 36.16042614], [-5.35508144, 36.15940464], [-5.35475135, 36.15905488], [-5.35455108, 36.15882015], [-5.35428166, 36.15862215], [-5.35398126, 36.15829945], [-5.35376024, 36.15786982], [-5.35356176, 36.15742731], [-5.35333335, 36.15699232], [-5.35298276, 36.15664625], [-5.35257673, 36.15639806], [-5.35221636, 36.15612817], [-5.35201025, 36.15584755], [-5.35195291, 36.15558112], [-5.35205185, 36.15531683], [-5.35191965, 36.15454674], [-5.35118556, 36.15175724], [-5.35757196, 36.15217614], [-5.36012018, 36.15019405], [-5.3533113, 36.14995468], [-5.3538959, 36.14677894], [-5.35899734, 36.14909637], [-5.36507404, 36.14920163], [-5.36594331, 36.14815485], [-5.36591995, 36.14370525], [-5.36550152, 36.14791095], [-5.36394358, 36.14791095], [-5.36311805, 36.14486861], [-5.36271143, 36.14678442], [-5.36036301, 36.14670932], [-5.36152565, 36.14608955], [-5.36166513, 36.14344227], [-5.35715973, 36.14000726], [-5.35808671, 36.13744772], [-5.35556865, 36.1344825], [-5.35664415, 36.13352895], [-5.35429633, 36.12755835], [-5.35650456, 36.12598121], [-5.36459434, 36.13362265], [-5.35386646, 36.12251461], [-5.35099494, 36.11847186], [-5.35062242, 36.11767566], [-5.35031307, 36.1114403], [-5.34977055, 36.11061192], [-5.3464148, 36.10859895], [-5.34535339, 36.10906137]], [[-5.41937005, 35.91496062], [-5.42180157, 35.91240287], [-5.42166114, 35.91211903], [-5.4168148, 35.91170514], [-5.41651917, 35.91188276], [-5.41688704, 35.91565824], [-5.4175353, 35.91629505], [-5.41937005, 35.91496062]]]]}, "geometry_name": "the_geom", "properties": {"name": "Strait of Gibraltar", "id": "28a", "longitude": -5.68521917467, "latitude": 35.97981274369, "min_x": -6.03254911565, "min_y": 35.77597653839, "max_x": -5.2787053648, "max_y": 36.18694186248, "area": 1664, "mrgid": 3346}}], "totalFeatures": 1, "numberMatched": 1, "numberReturned": 1, "timeStamp": "2026-08-12T16:56:13.109Z", "crs": {"type": "name", "properties": {"name": "urn:ogc:def:crs:EPSG::4326"}}}